OBJECT_NAME,OBJECT_ID,EPOCH,MEAN_MOTION,ECCENTRICITY,INCLINATION,RA_OF_ASC_NODE,ARG_OF_PERICENTER,MEAN_ANOMALY,EPHEMERIS_TYPE,CLASSIFICATION_TYPE,NORAD_CAT_ID,ELEMENT_SET_NO,REV_AT_EPOCH,BSTAR,MEAN_MOTION_DOT,MEAN_MOTION_DDOT
ONEWEB-0068,2020-020Y,2026-07-19T17:34:09.463008,13.11417951,.0001666,87.8896,14.5848,94.4298,265.7021,0,U,45446,999,30686,-.76426E-3,-.258E-5,0
ONEWEB-0046,2020-020Z,2026-07-19T17:22:08.944896,13.11415527,.000158,87.8887,14.5904,86.1095,274.0214,0,U,45447,999,30687,-.21182E-3,-.62E-6,0
ONEWEB-0063,2020-020AA,2026-07-19T10:44:23.679456,13.11417942,.0001836,87.8895,14.6478,82.0232,278.1105,0,U,45448,999,30692,-.88087499E-3,-.3E-5,0
ONEWEB-0019,2020-020AB,2026-07-19T17:09:46.030176,13.11415550,.0002006,87.8891,14.5782,96.1875,263.9482,0,U,45449,999,30680,.10875E-2,.398E-5,0
ONEWEB-0094,2020-020AC,2026-07-19T20:31:55.663104,13.17648854,.0001854,87.9160,359.3532,101.2134,258.9206,0,U,45450,999,31061,-.80628E-4,-.18E-6,0
ONEWEB-0087,2020-020AD,2026-07-19T10:58:39.031680,13.11418749,.00015957,87.8903,14.6218,97.1715,262.9595,0,U,45451,999,30681,.28688285E-3,.114E-5,0
ONEWEB-0082,2020-020AE,2026-07-19T10:53:45.792672,13.11419413,.00013527,87.8896,14.6362,93.0944,267.0339,0,U,45452,999,30690,-.13141901E-3,-.34E-6,0
ONEWEB-0050,2020-020AF,2026-07-19T02:25:33.312864,14.90478592,.00027731,88.9282,228.8753,164.3342,195.7973,0,U,45453,999,34513,.79976852E-4,.802E-5,0
ONEWEB-0034,2020-020AG,2026-07-19T11:47:54.710016,13.11414526,.00018077,87.8894,14.6379,89.2302,270.9033,0,U,45454,999,30682,.37085197E-3,.144E-5,0
ONEWEB-0060,2020-020AH,2026-07-19T10:42:58.627296,13.11418202,.00013978,87.8890,14.6427,125.0873,235.0386,0,U,45455,999,30677,-.98506078E-3,-.336E-5,0
ONEWEB-0086,2020-020AJ,2026-07-19T17:31:43.206816,13.11416030,.0002014,87.8895,14.5841,114.5752,245.5586,0,U,45456,999,30687,-.65026E-3,-.218E-5,0
ONEWEB-0088,2020-020AK,2026-07-19T11:30:35.131392,13.11416481,.00016399,87.8903,14.6091,79.6731,280.4582,0,U,45457,999,30677,.14914449E-2,.541E-5,0
ONEWEB-0102,2020-100A,2026-07-19T18:19:24.182112,13.12444594,.0002081,87.8968,344.1972,103.0354,257.1007,0,U,47258,999,26900,.10999E-2,.408E-5,0
ONEWEB-0109,2020-100B,2026-07-19T20:21:22.944672,13.12443951,.0001996,87.8978,344.1668,96.4915,263.6441,0,U,47259,999,26884,.12288E-2,.455E-5,0
ONEWEB-0110,2020-100C,2026-07-19T19:10:38.244000,13.12442123,.000188,87.8977,344.1607,106.6233,253.5102,0,U,47260,999,26900,-.52549E-3,-.176E-5,0
ONEWEB-0111,2020-100D,2026-07-19T19:54:32.663808,13.12444432,.0001763,87.8976,344.1733,99.2973,260.8354,0,U,47261,999,26884,-.97402E-4,-.22E-6,0
ONEWEB-0114,2020-100E,2026-07-19T20:38:27.697056,13.12442164,.0002072,87.8981,344.1652,96.3359,263.8005,0,U,47262,999,26880,.59902E-3,.228E-5,0
ONEWEB-0117,2020-100F,2026-07-19T20:26:16.044576,13.12442236,.0001876,87.8977,344.1566,99.1706,260.9635,0,U,47263,999,26881,.11758E-2,.436E-5,0
ONEWEB-0118,2020-100G,2026-07-19T19:25:16.214880,13.12441227,.0001918,87.8975,344.1679,86.9987,273.1361,0,U,47264,999,26900,-.11837E-2,-.413E-5,0
ONEWEB-0119,2020-100H,2026-07-19T20:01:52.279968,13.12443390,.0001897,87.8966,344.1767,96.7920,263.3424,0,U,47265,999,26898,.33812E-3,.134E-5,0
ONEWEB-0120,2020-100J,2026-07-19T20:36:13.560192,13.12441407,.0002033,87.8969,344.1734,94.9392,265.1968,0,U,47266,999,26901,.10492E-2,.39E-5,0
ONEWEB-0121,2020-100K,2026-07-19T20:18:56.773152,13.12442706,.0001602,87.8978,344.1650,102.2841,257.8467,0,U,47267,999,26892,.11686E-2,.433E-5,0
ONEWEB-0122,2020-100L,2026-07-19T20:10:24.652704,13.12442118,.0002033,87.8978,344.1713,99.4774,260.6584,0,U,47268,999,26883,.88514E-3,.331E-5,0
ONEWEB-0123,2020-100M,2026-07-19T20:04:18.199200,13.12443826,.0001853,87.8966,344.1756,93.9402,266.1939,0,U,47269,999,26897,.60759E-3,.231E-5,0
ONEWEB-0124,2020-100N,2026-07-19T19:49:39.701280,13.12443862,.0002022,87.8967,344.1800,100.1820,259.9536,0,U,47270,999,26885,-.69123E-3,-.236E-5,0
ONEWEB-0125,2020-100P,2026-07-19T19:17:56.405184,13.12442133,.0001568,87.8979,344.1715,93.7440,266.3868,0,U,47271,999,26891,-.99585E-3,-.346E-5,0
ONEWEB-0126,2020-100Q,2026-07-19T19:47:26.259936,13.12443551,.0001966,87.8970,344.1812,95.4717,264.6636,0,U,47272,999,26898,-.56694E-3,-.191E-5,0
ONEWEB-0127,2020-100R,2026-07-19T18:58:25.963392,13.12442167,.000201,87.8966,344.1845,98.3828,261.7529,0,U,47273,999,26900,.28762E-4,.23E-6,0
ONEWEB-0128,2020-100S,2026-07-19T19:30:08.356608,13.12443255,.0001859,87.8966,344.1943,107.4609,252.6723,0,U,47274,999,26902,-.1106E-2,-.385E-5,0
ONEWEB-0129,2020-100T,2026-07-19T19:00:52.679232,13.12440978,.0002929,87.8977,344.1751,90.7852,269.3612,0,U,47275,999,26895,-.2005E-4,.6E-7,0
