ONEWEB-0068             
1 45446U 20020Y   26200.73205397 -.00000258  00000+0 -76426-3 0  9997
2 45446  87.8896  14.5848 0001666  94.4298 265.7021 13.11417951306865
ONEWEB-0046             
1 45447U 20020Z   26200.72371464 -.00000062  00000+0 -21182-3 0  9998
2 45447  87.8887  14.5904 0001580  86.1095 274.0214 13.11415527306872
ONEWEB-0063             
1 45448U 20020AA  26200.44749629 -.00000300  00000+0 -88087-3 0  9992
2 45448  87.8895  14.6478 0001836  82.0232 278.1105 13.11417942306924
ONEWEB-0019             
1 45449U 20020AB  26200.71511609  .00000398  00000+0  10875-2 0  9992
2 45449  87.8891  14.5782 0002006  96.1875 263.9482 13.11415550306807
ONEWEB-0094             
1 45450U 20020AC  26200.85550536 -.00000018  00000+0 -80628-4 0  9997
2 45450  87.9160 359.3532 0001854 101.2134 258.9206 13.17648854310611
ONEWEB-0087             
1 45451U 20020AD  26200.45739620  .00000114  00000+0  28688-3 0  9999
2 45451  87.8903  14.6218 0001595  97.1715 262.9595 13.11418749306813
ONEWEB-0082             
1 45452U 20020AE  26200.45400223 -.00000034  00000+0 -13142-3 0  9996
2 45452  87.8896  14.6362 0001352  93.0944 267.0339 13.11419413306906
ONEWEB-0050             
1 45453U 20020AF  26200.10108001  .00000802  00000+0  79977-4 0  9998
2 45453  88.9282 228.8753 0002773 164.3342 195.7973 14.90478592345133
ONEWEB-0034             
1 45454U 20020AG  26200.49160544  .00000144  00000+0  37085-3 0  9993
2 45454  87.8894  14.6379 0001807  89.2302 270.9033 13.11414526306829
ONEWEB-0060             
1 45455U 20020AH  26200.44651189 -.00000336  00000+0 -98506-3 0  9999
2 45455  87.8890  14.6427 0001397 125.0873 235.0386 13.11418202306778
ONEWEB-0086             
1 45456U 20020AJ  26200.73036119 -.00000218  00000+0 -65026-3 0  9992
2 45456  87.8895  14.5841 0002014 114.5752 245.5586 13.11416030306875
ONEWEB-0088             
1 45457U 20020AK  26200.47957328  .00000541  00000+0  14914-2 0  9994
2 45457  87.8903  14.6091 0001639  79.6731 280.4582 13.11416481306777
ONEWEB-0102             
1 47258U 20100A   26200.76347433  .00000408  00000+0  10999-2 0  9997
2 47258  87.8968 344.1972 0002081 103.0354 257.1007 13.12444594269007
ONEWEB-0109             
1 47259U 20100B   26200.84818223  .00000455  00000+0  12288-2 0  9992
2 47259  87.8978 344.1668 0001996  96.4915 263.6441 13.12443951268844
ONEWEB-0110             
1 47260U 20100C   26200.79905375 -.00000176  00000+0 -52549-3 0  9990
2 47260  87.8977 344.1607 0001880 106.6233 253.5102 13.12442123269008
ONEWEB-0111             
1 47261U 20100D   26200.82954472 -.00000022  00000+0 -97402-4 0  9995
2 47261  87.8976 344.1733 0001763  99.2973 260.8354 13.12444432268842
ONEWEB-0114             
1 47262U 20100E   26200.86004279  .00000228  00000+0  59902-3 0  9999
2 47262  87.8981 344.1652 0002072  96.3359 263.8005 13.12442164268801
ONEWEB-0117             
1 47263U 20100F   26200.85157459  .00000436  00000+0  11758-2 0  9995
2 47263  87.8977 344.1566 0001876  99.1706 260.9635 13.12442236268817
ONEWEB-0118             
1 47264U 20100G   26200.80921545 -.00000413  00000+0 -11837-2 0  9991
2 47264  87.8975 344.1679 0001918  86.9987 273.1361 13.12441227269006
ONEWEB-0119             
1 47265U 20100H   26200.83463287  .00000134  00000+0  33812-3 0  9995
2 47265  87.8966 344.1767 0001897  96.7920 263.3424 13.12443390268987
ONEWEB-0120             
1 47266U 20100J   26200.85849028  .00000390  00000+0  10492-2 0  9991
2 47266  87.8969 344.1734 0002033  94.9392 265.1968 13.12441407269016
ONEWEB-0121             
1 47267U 20100K   26200.84649043  .00000433  00000+0  11686-2 0  9990
2 47267  87.8978 344.1650 0001602 102.2841 257.8467 13.12442706268921
ONEWEB-0122             
1 47268U 20100L   26200.84056311  .00000331  00000+0  88514-3 0  9993
2 47268  87.8978 344.1713 0002033  99.4774 260.6584 13.12442118268832
ONEWEB-0123             
1 47269U 20100M   26200.83632175  .00000231  00000+0  60759-3 0  9991
2 47269  87.8966 344.1756 0001853  93.9402 266.1939 13.12443826268970
ONEWEB-0124             
1 47270U 20100N   26200.82615395 -.00000236  00000+0 -69123-3 0  9998
2 47270  87.8967 344.1800 0002022 100.1820 259.9536 13.12443862268857
ONEWEB-0125             
1 47271U 20100P   26200.80412506 -.00000346  00000+0 -99585-3 0  9993
2 47271  87.8979 344.1715 0001568  93.7440 266.3868 13.12442133268912
ONEWEB-0126             
1 47272U 20100Q   26200.82460949 -.00000191  00000+0 -56694-3 0  9992
2 47272  87.8970 344.1812 0001966  95.4717 264.6636 13.12443551268986
ONEWEB-0127             
1 47273U 20100R   26200.79057828  .00000023  00000+0  28762-4 0  9995
2 47273  87.8966 344.1845 0002010  98.3828 261.7529 13.12442167269009
ONEWEB-0128             
1 47274U 20100S   26200.81259672 -.00000385  00000+0 -11060-2 0  9994
2 47274  87.8966 344.1943 0001859 107.4609 252.6723 13.12443255269024
ONEWEB-0129             
1 47275U 20100T   26200.79227638  .00000006  00000+0 -20050-4 0  9999
2 47275  87.8977 344.1751 0002929  90.7852 269.3612 13.12440978268959
